{"fetched_at":"2026-04-16T17:13:58Z","count":4884,"tles":[{"name":"TRANSPORTER-16 OBJECT G","line1":"1 68422U 26067G   26104.13265363  .00002336  00000+0  11720-3 0  9992","line2":"2 68422  97.4431  63.5576 0002811  94.5078 265.6477 15.18299949  2229","category":"Other"}]}